OBJECT_NAME,OBJECT_ID,EPOCH,MEAN_MOTION,ECCENTRICITY,INCLINATION,RA_OF_ASC_NODE,ARG_OF_PERICENTER,MEAN_ANOMALY,EPHEMERIS_TYPE,CLASSIFICATION_TYPE,NORAD_CAT_ID,ELEMENT_SET_NO,REV_AT_EPOCH,BSTAR,MEAN_MOTION_DOT,MEAN_MOTION_DDOT
POLYITAN-1,2014-033AJ,2026-07-16T00:27:25.994304,15.34238045,.00078584,98.0929,226.0285,61.8331,298.3703,0,U,40042,999,65801,.33884946E-3,.11154E-3,0
TIGRISAT,2014-033AK,2026-07-15T21:12:14.619456,14.85250731,.00485818,97.7865,346.2444,342.0708,17.8792,0,U,40043,999,64988,.88309404E-4,.717E-5,0
AEROCUBE 6A,2014-033AM,2026-07-16T06:37:35.114304,14.98349600,.00362332,97.7251,3.9222,277.2615,82.4489,0,U,40045,999,65097,.25680079E-3,.3039E-4,0
AEROCUBE 6B,2014-033AN,2026-07-16T01:11:58.139808,14.99802736,.00380908,97.7202,3.5474,267.0458,92.6405,0,U,40046,999,65108,.21039033E-3,.2579E-4,0
CANX-4,2014-034C,2026-07-16T03:08:02.069664,14.81312086,.00113956,98.3082,73.5013,279.4412,80.5511,0,U,40055,999,64881,.58337147E-4,.398E-5,0
CANX-5,2014-034D,2026-07-16T03:05:17.488032,14.81329424,.00113948,98.3084,73.5446,279.6948,80.2976,0,U,40056,999,63962,.58337823E-4,.398E-5,0
UKUBE-1,2014-037F,2026-07-15T23:43:16.755168,15.13956498,.00032598,98.4241,203.2965,86.4825,273.6777,0,U,40074,999,65291,.22733956E-3,.4043E-4,0
BRITE-PL2 (HEWELIUSZ),2014-049B,2026-07-16T05:27:13.521312,14.94688249,.00142366,97.9120,309.4562,18.8456,341.3288,0,U,40119,999,64578,.46411224E-4,.444E-5,0
AEROCUBE 5C,2015-058B,2026-07-16T04:53:03.429888,14.91579681,.01323882,64.7648,172.3110,52.0784,309.2208,0,U,40965,999,36998,.1582187E-3,.1701E-4,0
AEROCUBE 7,2015-058C,2026-07-16T04:23:52.154592,14.95918607,.0122098,64.7614,153.9795,50.3842,310.7973,0,U,40966,999,37029,.20749847E-3,.2521E-4,0
FOX-1A (AO-85),2015-058D,2026-07-16T04:38:35.457216,14.91091433,.01324348,64.7725,188.8311,45.4251,315.7579,0,U,40967,999,11789,.14890017E-3,.1568E-4,0
SINOD-D 1,2015-058E,2026-07-16T00:34:39.901152,14.96092591,.01211078,64.7736,168.5927,41.8534,319.1761,0,U,40968,999,12097,.22016432E-3,.2694E-4,0
SNAP-3 ALICE,2015-058G,2026-07-16T01:54:14.512896,15.67395298,.00248108,64.7495,3.5000,347.6299,12.4238,0,U,40970,999,12140,.86332882E-3,.96316E-3,0
LMRST-SAT,2015-058H,2026-07-16T05:21:34.175808,14.90706741,.01339848,64.7732,185.1319,47.4200,313.8124,0,U,40971,999,11788,.14773282E-3,.1543E-4,0
SNAP-3 EDDIE,2015-058J,2026-07-15T20:31:01.166304,15.68757584,.00258698,64.7406,354.7889,350.5303,9.5356,0,U,40972,999,12351,.88300439E-3,.104454E-2,0
PROPCUBE 3,2015-058K,2026-07-16T02:53:15.214272,14.94420055,.01258491,64.7673,162.1255,48.6481,312.5376,0,U,40973,999,11912,.18789358E-3,.2191E-4,0
BISONSAT,2015-058L,2026-07-16T02:43:40.421856,15.16947008,.00822235,64.7583,80.0642,35.4784,325.1769,0,U,40974,999,12000,.37011862E-3,.7796E-4,0
SNAP-3 JIMI,2015-058M,2026-07-16T05:02:44.712672,15.02617224,.01079308,64.7651,127.9226,43.9445,317.0191,0,U,40975,999,11858,.26765751E-3,.3868E-4,0
PROPCUBE 1 (FLORA),2015-058N,2026-07-16T04:55:06.011616,14.89330606,.0132551,64.7718,205.2934,49.7005,311.5601,0,U,40976,999,12058,.12586653E-3,.1232E-4,0
SINOD-D 3,2015-058P,2026-07-16T05:21:55.506240,14.94178208,.01211465,64.7705,185.1346,46.7405,314.3741,0,U,40977,999,11909,.18560169E-3,.2121E-4,0
RAVAN,2016-067B,2026-07-16T04:09:24.918912,15.57535759,.00023668,97.9840,90.1551,211.9588,148.1522,0,U,41849,999,53220,.46379191E-3,.34124E-3,0
CELTEE 1,2016-067C,2026-07-16T02:38:44.756736,15.19946149,.00023706,98.0631,65.6497,109.2450,250.9040,0,U,41850,999,53027,.13406467E-3,.2804E-4,0
OPTICUBE 04,2016-067D,2026-07-16T02:37:17.896224,15.09773959,.00161059,98.0673,50.8999,24.9003,335.2998,0,U,41851,999,52953,.58792181E-4,.88E-5,0
AEROCUBE 8D,2016-067E,2026-07-16T03:57:48.394080,15.24777588,.00045174,98.0638,69.5432,53.9134,306.2520,0,U,41852,999,53048,.15595178E-3,.3783E-4,0
AEROCUBE 8C,2016-067F,2026-07-16T04:26:52.744416,15.25031596,.00041418,98.0513,66.7554,337.9338,22.1719,0,U,41853,999,53048,.15831542E-3,.3872E-4,0
CORVUS BC2,2017-042X,2026-07-15T16:35:56.691168,15.06458015,.0013404,97.4091,356.9404,21.4439,338.7347,0,U,42846,999,49135,.8400815E-4,.1182E-4,0
CORVUS BC1,2017-042Y,2026-07-16T00:21:51.602112,15.06621874,.00115717,97.4121,358.0843,357.2701,2.8462,0,U,42847,999,49143,.93421594E-4,.1326E-4,0
MAKERSAT 0,2017-073D,2026-07-15T21:48:29.083680,15.33023791,.0105468,97.4576,79.6633,169.7172,190.6262,0,U,43016,999,47086,.31974E-3,.12107E-3,0
SIRION PATHFINDER-2,2018-099B,2026-07-16T02:48:54.347616,15.14780657,.00085491,97.4236,245.4890,188.1811,171.9283,0,U,43759,999,41700,.99039815E-4,.1774E-4,0
CORVUS BC4,2018-099K,2026-07-16T00:44:40.175520,15.12705555,.00065266,97.4050,239.1683,257.3577,102.6924,0,U,43767,999,41676,.10469074E-3,.177E-4,0
