POLYITAN-1              
1 40042U 14033AJ  26197.01905086  .00011154  00000+0  33885-3 0  9996
2 40042  98.0929 226.0285 0007858  61.8331 298.3703 15.34238045658011
TIGRISAT                
1 40043U 14033AK  26196.88350254  .00000717  00000+0  88309-4 0  9997
2 40043  97.7865 346.2444 0048581 342.0708  17.8792 14.85250731649887
AEROCUBE 6A             
1 40045U 14033AM  26197.27610086  .00003039  00000+0  25680-3 0  9997
2 40045  97.7251   3.9222 0036233 277.2615  82.4489 14.98349600650977
AEROCUBE 6B             
1 40046U 14033AN  26197.04997847  .00002579  00000+0  21039-3 0  9998
2 40046  97.7202   3.5474 0038090 267.0458  92.6405 14.99802736651083
CANX-4                  
1 40055U 14034C   26197.13057951  .00000398  00000+0  58337-4 0  9991
2 40055  98.3082  73.5013 0011395 279.4412  80.5511 14.81312086648814
CANX-5                  
1 40056U 14034D   26197.12867463  .00000398  00000+0  58338-4 0  9999
2 40056  98.3084  73.5446 0011394 279.6948  80.2976 14.81329424639627
UKUBE-1                 
1 40074U 14037F   26196.98838837  .00004043  00000+0  22734-3 0  9999
2 40074  98.4241 203.2965 0003259  86.4825 273.6777 15.13956498652917
BRITE-PL2 (HEWELIUSZ)   
1 40119U 14049B   26197.22723983  .00000444  00000+0  46411-4 0  9995
2 40119  97.9120 309.4562 0014236  18.8456 341.3288 14.94688249645786
AEROCUBE 5C             
1 40965U 15058B   26197.20351192  .00001701  00000+0  15822-3 0  9990
2 40965  64.7648 172.3110 0132388  52.0784 309.2208 14.91579681369987
AEROCUBE 7              
1 40966U 15058C   26197.18324253  .00002521  00000+0  20750-3 0  9993
2 40966  64.7614 153.9795 0122098  50.3842 310.7973 14.95918607370299
FOX-1A (AO-85)          
1 40967U 15058D   26197.19346594  .00001568  00000+0  14890-3 0  9995
2 40967  64.7725 188.8311 0132434  45.4251 315.7579 14.91091433117895
SINOD-D 1               
1 40968U 15058E   26197.02407293  .00002694  00000+0  22016-3 0  9992
2 40968  64.7736 168.5927 0121107  41.8534 319.1761 14.96092591120970
SNAP-3 ALICE            
1 40970U 15058G   26197.07933464  .00096316  00000+0  86333-3 0  9990
2 40970  64.7495   3.5000 0024810 347.6299  12.4238 15.67395298121403
LMRST-SAT               
1 40971U 15058H   26197.22331222  .00001543  00000+0  14773-3 0  9999
2 40971  64.7732 185.1319 0133984  47.4200 313.8124 14.90706741117881
SNAP-3 EDDIE            
1 40972U 15058J   26196.85487461  .00104454  00000+0  88300-3 0  9997
2 40972  64.7406 354.7889 0025869 350.5303   9.5356 15.68757584123510
PROPCUBE 3              
1 40973U 15058K   26197.12031498  .00002191  00000+0  18789-3 0  9993
2 40973  64.7673 162.1255 0125849  48.6481 312.5376 14.94420055119125
BISONSAT                
1 40974U 15058L   26197.11366229  .00007796  00000+0  37012-3 0  9992
2 40974  64.7583  80.0642 0082223  35.4784 325.1769 15.16947008120004
SNAP-3 JIMI             
1 40975U 15058M   26197.21023973  .00003868  00000+0  26766-3 0  9990
2 40975  64.7651 127.9226 0107930  43.9445 317.0191 15.02617224118589
PROPCUBE 1 (FLORA)      
1 40976U 15058N   26197.20493069  .00001232  00000+0  12587-3 0  9996
2 40976  64.7718 205.2934 0132551  49.7005 311.5601 14.89330606120581
SINOD-D 3               
1 40977U 15058P   26197.22355910  .00002121  00000+0  18560-3 0  9996
2 40977  64.7705 185.1346 0121146  46.7405 314.3741 14.94178208119094
RAVAN                   
1 41849U 16067B   26197.17320508  .00034124  00000+0  46379-3 0  9992
2 41849  97.9840  90.1551 0002366 211.9588 148.1522 15.57535759532204
CELTEE 1                
1 41850U 16067C   26197.11024024  .00002804  00000+0  13406-3 0  9997
2 41850  98.0631  65.6497 0002370 109.2450 250.9040 15.19946149530273
OPTICUBE 04             
1 41851U 16067D   26197.10923491  .00000880  00000+0  58792-4 0  9993
2 41851  98.0673  50.8999 0016105  24.9003 335.2998 15.09773959529533
AEROCUBE 8D             
1 41852U 16067E   26197.16514345  .00003783  00000+0  15595-3 0  9992
2 41852  98.0638  69.5432 0004517  53.9134 306.2520 15.24777588530489
AEROCUBE 8C             
1 41853U 16067F   26197.18533269  .00003872  00000+0  15832-3 0  9994
2 41853  98.0513  66.7554 0004141 337.9338  22.1719 15.25031596530487
CORVUS BC2              
1 42846U 17042X   26196.69162837  .00001182  00000+0  84008-4 0  9999
2 42846  97.4091 356.9404 0013404  21.4439 338.7347 15.06458015491354
CORVUS BC1              
1 42847U 17042Y   26197.01518058  .00001326  00000+0  93422-4 0  9997
2 42847  97.4121 358.0843 0011571 357.2701   2.8462 15.06621874491435
MAKERSAT 0              
1 43016U 17073D   26196.90866995  .00012107  00000+0  31974-3 0  9995
2 43016  97.4576  79.6633 0105468 169.7172 190.6262 15.33023791470860
SIRION PATHFINDER-2     
1 43759U 18099B   26197.11729569  .00001774  00000+0  99040-4 0  9994
2 43759  97.4236 245.4890 0008549 188.1811 171.9283 15.14780657417004
CORVUS BC4              
1 43767U 18099K   26197.03102055  .00001770  00000+0  10469-3 0  9992
2 43767  97.4050 239.1683 0006526 257.3577 102.6924 15.12705555416765
